[{"OBJECT_NAME":"STARLINK-34465","OBJECT_ID":"2025-130A","EPOCH":"2026-03-09T08:43:40.204128","MEAN_MOTION":15.30202086,"ECCENTRICITY":0.00012394,"INCLINATION":53.1594,"RA_OF_ASC_NODE":90.0207,"ARG_OF_PERICENTER":108.4146,"MEAN_ANOMALY":251.699,"EPHEMERIS_TYPE":0,"CLASSIFICATION_TYPE":"U","NORAD_CAT_ID":64438,"ELEMENT_SET_NO":999,"REV_AT_EPOCH":4065,"BSTAR":0.00067326148,"MEAN_MOTION_DOT":0.00019635,"MEAN_MOTION_DDOT":0},{"OBJECT_NAME":"NOAA 17 DEB","OBJECT_ID":"2002-032AF","EPOCH":"2026-03-09T00:24:06.552000","MEAN_MOTION":15.25501717,"ECCENTRICITY":0.00030847,"INCLINATION":98.6472,"RA_OF_ASC_NODE":92.5947,"ARG_OF_PERICENTER":165.9893,"MEAN_ANOMALY":194.1428,"EPHEMERIS_TYPE":0,"CLASSIFICATION_TYPE":"U","NORAD_CAT_ID":48614,"ELEMENT_SET_NO":999,"REV_AT_EPOCH":26420,"BSTAR":0.01090047,"MEAN_MOTION_DOT":0.00286783,"MEAN_MOTION_DDOT":0}]
